{"type": "FeatureCollection", "features": [ {"type": "Feature", "properties": {"norad_id": 47048, "name": "COSMOS 2251 DEB", "group": "cosmos-2251-debris", "lat": 73.20339748259975, "lon": 55.53432772243084, "alt_km": 636.924882465044, "timestamp": "2025-12-18T19:29:52.940725+00:00", "meta": {"OBJECT_NAME": "COSMOS 2251 DEB", "OBJECT_ID": "1993-036BXC", "EPOCH": "2025-12-12T16:45:08.160768", "MEAN_MOTION": 14.52302543, "ECCENTRICITY": 0.01328752, "INCLINATION": 73.9781, "RA_OF_ASC_NODE": 319.2649, "ARG_OF_PERICENTER": 147.2155, "MEAN_ANOMALY": 32.9715, "EPHEMERIS_TYPE": 0, "CLASSIFICATION_TYPE": "U", "NORAD_CAT_ID": 47048, "ELEMENT_SET_NO": 999, "REV_AT_EPOCH": 59689, "BSTAR": 0.0015366021, "MEAN_MOTION_DOT": 6.991e-05, "MEAN_MOTION_DDOT": 0}, "tle": {"line1": "1 47048U 93036BXC 25346.69801112  .00006991  00000+0  15366-2 0  9999", "line2": "2 47048  73.9781 319.2649 0132875 147.2155  32.9715 14.52302543596898"}}, "geometry": {"type": "Point", "coordinates": [55.53432772243084, 73.20339748259975]}}, {"type": "Feature", "properties": {"norad_id": 47051, "name": "COSMOS 2251 DEB", "group": "cosmos-2251-debris", "lat": 1.7690804917048866, "lon": 174.17119192689924, "alt_km": 943.7135324633873, "timestamp": "2025-12-18T19:29:52.940735+00:00", "meta": {"OBJECT_NAME": "COSMOS 2251 DEB", "OBJECT_ID": "1993-036BXF", "EPOCH": "2025-12-13T06:55:53.868288", "MEAN_MOTION": 13.67117141, "ECCENTRICITY": 0.03401033, "INCLINATION": 74.1001, "RA_OF_ASC_NODE": 182.6908, "ARG_OF_PERICENTER": 296.1774, "MEAN_ANOMALY": 246.9893, "EPHEMERIS_TYPE": 0, "CLASSIFICATION_TYPE": "U", "NORAD_CAT_ID": 47051, "ELEMENT_SET_NO": 999, "REV_AT_EPOCH": 59945, "BSTAR": 0.0019326179, "MEAN_MOTION_DOT": 2.391e-05, "MEAN_MOTION_DDOT": 0}, "tle": {"line1": "1 47051U 93036BXF 25347.28881792  .00002391  00000+0  19326-2 0  9991", "line2": "2 47051  74.1001 182.6908 0340103 296.1774 246.9893 13.67117141599458"}}, "geometry": {"type": "Point", "coordinates": [174.17119192689924, 1.7690804917048866]}}, {"type": "Feature", "properties": {"norad_id": 47052, "name": "COSMOS 2251 DEB", "group": "cosmos-2251-debris", "lat": 61.25623262679328, "lon": 117.76486276655086, "alt_km": 754.2750547208252, "timestamp": "2025-12-18T19:29:52.940745+00:00", "meta": {"OBJECT_NAME": "COSMOS 2251 DEB", "OBJECT_ID": "1993-036BXG", "EPOCH": "2025-12-13T17:42:34.547904", "MEAN_MOTION": 14.35482778, "ECCENTRICITY": 0.00580984, "INCLINATION": 74.0478, "RA_OF_ASC_NODE": 338.4955, "ARG_OF_PERICENTER": 52.4094, "MEAN_ANOMALY": 127.807, "EPHEMERIS_TYPE": 0, "CLASSIFICATION_TYPE": "U", "NORAD_CAT_ID": 47052, "ELEMENT_SET_NO": 999, "REV_AT_EPOCH": 61803, "BSTAR": 0.00037288685, "MEAN_MOTION_DOT": 1.067e-05, "MEAN_MOTION_DDOT": 0}, "tle": {"line1": "1 47052U 93036BXG 25347.73789986  .00001067  00000+0  37289-3 0  9992", "line2": "2 47052  74.0478 338.4955 0058098  52.4094 127.8070 14.35482778618033"}}, "geometry": {"type": "Point", "coordinates": [117.76486276655086, 61.25623262679328]}}, {"type": "Feature", "properties": {"norad_id": 47053, "name": "COSMOS 2251 DEB", "group": "cosmos-2251-debris", "lat": 26.336892295330063, "lon": -107.63430611905883, "alt_km": 788.2444091342031, "timestamp": "2025-12-18T19:29:52.940755+00:00", "meta": {"OBJECT_NAME": "COSMOS 2251 DEB", "OBJECT_ID": "1993-036BXH", "EPOCH": "2025-12-16T00:20:00.787200", "MEAN_MOTION": 13.59681102, "ECCENTRICITY": 0.03769313, "INCLINATION": 74.0586, "RA_OF_ASC_NODE": 248.7599, "ARG_OF_PERICENTER": 61.5734, "MEAN_ANOMALY": 314.7883, "EPHEMERIS_TYPE": 0, "CLASSIFICATION_TYPE": "U", "NORAD_CAT_ID": 47053, "ELEMENT_SET_NO": 999, "REV_AT_EPOCH": 28933, "BSTAR": 0.0014494241, "MEAN_MOTION_DOT": 1.7e-05, "MEAN_MOTION_DDOT": 0}, "tle": {"line1": "1 47053U 93036BXH 25350.01389800  .00001700  00000+0  14494-2 0  9995", "line2": "2 47053  74.0586 248.7599 0376931  61.5734 314.7883 13.59681102289335"}}, "geometry": {"type": "Point", "coordinates": [-107.63430611905883, 26.336892295330063]}}, {"type": "Feature", "properties": {"norad_id": 47059, "name": "COSMOS 2251 DEB", "group": "cosmos-2251-debris", "lat": -4.501445735005944, "lon": -138.51123283448774, "alt_km": 522.5399944993969, "timestamp": "2025-12-18T19:29:52.940765+00:00", "meta": {"OBJECT_NAME": "COSMOS 2251 DEB", "OBJECT_ID": "1993-036BXP", "EPOCH": "2025-12-16T01:10:48.054720", "MEAN_MOTION": 15.13144812, "ECCENTRICITY": 0.00128667, "INCLINATION": 73.98, "RA_OF_ASC_NODE": 228.534, "ARG_OF_PERICENTER": 42.2566, "MEAN_ANOMALY": 26.5019, "EPHEMERIS_TYPE": 0, "CLASSIFICATION_TYPE": "U", "NORAD_CAT_ID": 47059, "ELEMENT_SET_NO": 999, "REV_AT_EPOCH": 8355, "BSTAR": 0.0018804977, "MEAN_MOTION_DOT": 0.00033522, "MEAN_MOTION_DDOT": 0}, "tle": {"line1": "1 47059U 93036BXP 25350.04916730  .00033522  00000+0  18805-2 0  9999", "line2": "2 47059  73.9800 228.5340 0012866  42.2566  26.5019 15.13144812 83550"}}, "geometry": {"type": "Point", "coordinates": [-138.51123283448774, -4.501445735005944]}}, {"type": "Feature", "properties": {"norad_id": 47062, "name": "COSMOS 2251 DEB", "group": "cosmos-2251-debris", "lat": -10.179274990620618, "lon": -108.90039683580747, "alt_km": 758.0663032849388, "timestamp": "2025-12-18T19:29:52.940775+00:00", "meta": {"OBJECT_NAME": "COSMOS 2251 DEB", "OBJECT_ID": "1993-036BXS", "EPOCH": "2025-12-13T23:56:30.676992", "MEAN_MOTION": 13.71952164, "ECCENTRICITY": 0.03233862, "INCLINATION": 74.0831, "RA_OF_ASC_NODE": 76.1003, "ARG_OF_PERICENTER": 201.6929, "MEAN_ANOMALY": 337.1469, "EPHEMERIS_TYPE": 0, "CLASSIFICATION_TYPE": "U", "NORAD_CAT_ID": 47062, "ELEMENT_SET_NO": 999, "REV_AT_EPOCH": 55619, "BSTAR": 0.0017198262, "MEAN_MOTION_DOT": 2.244e-05, "MEAN_MOTION_DDOT": 0}, "tle": {"line1": "1 47062U 93036BXS 25347.99757728  .00002244  00000+0  17198-2 0  9994", "line2": "2 47062  74.0831  76.1003 0323386 201.6929 337.1469 13.71952164556193"}}, "geometry": {"type": "Point", "coordinates": [-108.90039683580747, -10.179274990620618]}}, {"type": "Feature", "properties": {"norad_id": 47068, "name": "COSMOS 2251 DEB", "group": "cosmos-2251-debris", "lat": -69.25549088232474, "lon": 142.85099910923495, "alt_km": 709.2402308111459, "timestamp": "2025-12-18T19:29:52.940807+00:00", "meta": {"OBJECT_NAME": "COSMOS 2251 DEB", "OBJECT_ID": "1993-036BXY", "EPOCH": "2025-12-18T06:37:53.129568", "MEAN_MOTION": 14.53187379, "ECCENTRICITY": 0.00182878, "INCLINATION": 74.0232, "RA_OF_ASC_NODE": 193.012, "ARG_OF_PERICENTER": 279.6749, "MEAN_ANOMALY": 80.2347, "EPHEMERIS_TYPE": 0, "CLASSIFICATION_TYPE": "U", "NORAD_CAT_ID": 47068, "ELEMENT_SET_NO": 999, "REV_AT_EPOCH": 61837, "BSTAR": 0.00067889, "MEAN_MOTION_DOT": 2.791e-05, "MEAN_MOTION_DDOT": 0}, "tle": {"line1": "1 47068U 93036BXY 25352.27630937  .00002791  00000+0  67889-3 0  9999", "line2": "2 47068  74.0232 193.0120 0018287 279.6749  80.2347 14.53187379618378"}}, "geometry": {"type": "Point", "coordinates": [142.85099910923495, -69.25549088232474]}}, {"type": "Feature", "properties": {"norad_id": 47073, "name": "COSMOS 2251 DEB", "group": "cosmos-2251-debris", "lat": 66.2419605991416, "lon": -29.1432075554997, "alt_km": 928.3002827544251, "timestamp": "2025-12-18T19:29:52.940818+00:00", "meta": {"OBJECT_NAME": "COSMOS 2251 DEB", "OBJECT_ID": "1993-036BYD", "EPOCH": "2025-12-15T07:13:18.345792", "MEAN_MOTION": 14.04726954, "ECCENTRICITY": 0.01614948, "INCLINATION": 74.0808, "RA_OF_ASC_NODE": 197.3835, "ARG_OF_PERICENTER": 235.0635, "MEAN_ANOMALY": 123.5242, "EPHEMERIS_TYPE": 0, "CLASSIFICATION_TYPE": "U", "NORAD_CAT_ID": 47073, "ELEMENT_SET_NO": 999, "REV_AT_EPOCH": 60397, "BSTAR": 0.00047491463, "MEAN_MOTION_DOT": 8.3e-06, "MEAN_MOTION_DDOT": 0}, "tle": {"line1": "1 47073U 93036BYD 25349.30090678  .00000830  00000+0  47491-3 0  9996", "line2": "2 47073  74.0808 197.3835 0161494 235.0635 123.5242 14.04726954603971"}}, "geometry": {"type": "Point", "coordinates": [-29.1432075554997, 66.2419605991416]}}, {"type": "Feature", "properties": {"norad_id": 47074, "name": "COSMOS 2251 DEB", "group": "cosmos-2251-debris", "lat": -34.06692486186013, "lon": 128.7235337623198, "alt_km": 810.4359013747717, "timestamp": "2025-12-18T19:29:52.940828+00:00", "meta": {"OBJECT_NAME": "COSMOS 2251 DEB", "OBJECT_ID": "1993-036BYE", "EPOCH": "2025-12-16T13:32:26.153376", "MEAN_MOTION": 14.35650419, "ECCENTRICITY": 0.01449048, "INCLINATION": 74.0928, "RA_OF_ASC_NODE": 301.7157, "ARG_OF_PERICENTER": 328.8455, "MEAN_ANOMALY": 153.2821, "EPHEMERIS_TYPE": 0, "CLASSIFICATION_TYPE": "U", "NORAD_CAT_ID": 47074, "ELEMENT_SET_NO": 999, "REV_AT_EPOCH": 2737, "BSTAR": 0.0011411657, "MEAN_MOTION_DOT": 3.683e-05, "MEAN_MOTION_DDOT": 0}, "tle": {"line1": "1 47074U 93036BYE 25350.56419159  .00003683  00000+0  11412-2 0  9998", "line2": "2 47074  74.0928 301.7157 0144904 328.8455 153.2821 14.35650419 27374"}}, "geometry": {"type": "Point", "coordinates": [128.7235337623198, -34.06692486186013]}}, {"type": "Feature", "properties": {"norad_id": 47116, "name": "COSMOS 2251 DEB", "group": "cosmos-2251-debris", "lat": -5.493726367984664, "lon": -133.1816121759754, "alt_km": 562.5853665641353, "timestamp": "2025-12-18T19:29:52.940838+00:00", "meta": {"OBJECT_NAME": "COSMOS 2251 DEB", "OBJECT_ID": "1993-036BYJ", "EPOCH": "2025-12-17T22:44:25.492992", "MEAN_MOTION": 14.98433598, "ECCENTRICITY": 0.00213127, "INCLINATION": 74.0233, "RA_OF_ASC_NODE": 230.1515, "ARG_OF_PERICENTER": 323.4041, "MEAN_ANOMALY": 47.2172, "EPHEMERIS_TYPE": 0, "CLASSIFICATION_TYPE": "U", "NORAD_CAT_ID": 47116, "ELEMENT_SET_NO": 999, "REV_AT_EPOCH": 59589, "BSTAR": 0.0014083931, "MEAN_MOTION_DOT": 0.000169, "MEAN_MOTION_DDOT": 0}, "tle": {"line1": "1 47116U 93036BYJ 25351.94751728  .00016900  00000+0  14084-2 0  9993", "line2": "2 47116  74.0233 230.1515 0021312 323.4041  47.2172 14.98433598595896"}}, "geometry": {"type": "Point", "coordinates": [-133.1816121759754, -5.493726367984664]}}]}